#dV2023  1 11 10  0  0.00000000    1682       CTS   FIT  GFZ
## 2244 295200.00000000    30.00000000 59955 0.4166666666667
+    1   L64  0  0  0  0  0  0  0  0  0  0  0  0  0  0  0  0
+          0  0  0  0  0  0  0  0  0  0  0  0  0  0  0  0  0
+          0  0  0  0  0  0  0  0  0  0  0  0  0  0  0  0  0
+          0  0  0  0  0  0  0  0  0  0  0  0  0  0  0  0  0
+          0  0  0  0  0  0  0  0  0  0  0  0  0  0  0  0  0
++         0  0  0  0  0  0  0  0  0  0  0  0  0  0  0  0  0
++         0  0  0  0  0  0  0  0  0  0  0  0  0  0  0  0  0
++         0  0  0  0  0  0  0  0  0  0  0  0  0  0  0  0  0
++         0  0  0  0  0  0  0  0  0  0  0  0  0  0  0  0  0
++         0  0  0  0  0  0  0  0  0  0  0  0  0  0  0  0  0
%c L  cc GPS ccc cccc cccc cccc cccc ccccc ccccc ccccc ccccc
%c cc cc ccc ccc cccc cccc cccc cccc ccccc ccccc ccccc ccccc
%f  0.0000000  0.000000000  0.00000000000  0.000000000000000
%f  0.0000000  0.000000000  0.00000000000  0.000000000000000
%i    0    0    0    0      0      0      0      0         0
%i    0    0    0    0      0      0      0      0         0
/* CCCCCCCCCCCCCCCCCCCCCCCCCCCCCCCCCCCCCCCCCCCCCCCCCCCCCCCCCCCCCCCCCCCCCCCCCCCCC
/* C                             GFZ RSO-ORBIT                                 C
/* C DOI: https://doi.org/10.5880/GFZ_ORBIT/RSO/L64_G_v02                      C
/* C                                                                           C
/* C DORIS        RMS: not applicable                                          C
/* C GNSS-E Code  RMS: not applicable                                          C
/* C GNSS-E Phase RMS: not applicable                                          C
/* C GNSS-G Code  RMS:  49.996 [cm]   Obs.acc.:     13896 Obs.eli.:      1052  C
/* C GNSS-G Phase RMS:   3.983 [mm]   Obs.acc.:     13896 Obs.eli.:      1052  C
/* C SLR          RMS:   2.073 [cm]   Obs.acc.:        31 Obs.eli.:         0  C
/* C                                                                           C
/* CCCCCCCCCCCCCCCCCCCCCCCCCCCCCCCCCCCCCCCCCCCCCCCCCCCCCCCCCCCCCCCCCCCCCCCCCCCCC
*  2023  1 11 13 49 30.00000000
PL64   4113.805293   5344.738838   1312.639381  28256.244977
VL64  -6068.702650 -13703.031879  74769.785139 999999.999999
*  2023  1 11 13 50  0.00000000
PL64   4093.241362   5300.735082   1536.178721  28256.704516
VL64  -7640.710087 -15628.938596  74242.660781 999999.999999
*  2023  1 11 13 50 30.00000000
PL64   4067.961207   5250.989476   1758.012976  28257.164116
VL64  -9212.542189 -17530.576367  73633.169739 999999.999999
*  2023  1 11 13 51  0.00000000
PL64   4037.968147   5195.578011   1977.896067  28257.623439
VL64 -10782.336354 -19405.828490  72942.009996 999999.999999
*  2023  1 11 13 51 30.00000000
PL64   4003.271095   5134.582969   2195.584160  28258.080244
VL64 -12348.224672 -21252.618623  72169.977961 999999.999999
*  2023  1 11 13 52  0.00000000
PL64   3963.884572   5068.092792   2410.835951  28258.536584
VL64 -13908.339365 -23068.917624  71317.964452 999999.999999
*  2023  1 11 13 52 30.00000000
PL64   3919.828698   4996.201936   2623.412940  28258.994107
VL64 -15460.815077 -24852.745053  70386.947049 999999.999999
*  2023  1 11 13 53  0.00000000
PL64   3871.129184   4919.010729   2833.079689  28259.452408
VL64 -17003.788500 -26602.166570  69377.988274 999999.999999
*  2023  1 11 13 53 30.00000000
PL64   3817.817328   4836.625231   3039.604075  28259.911199
VL64 -18535.400840 -28315.295097  68292.237428 999999.999999
*  2023  1 11 13 54  0.00000000
PL64   3759.929992   4749.157090   3242.757553  28260.370300
VL64 -20053.800708 -29990.294413  67130.928347 999999.999999
*  2023  1 11 13 54 30.00000000
PL64   3697.509582   4656.723380   3442.315399  28260.829535
VL64 -21557.142829 -31625.380865  65895.376158 999999.999999
*  2023  1 11 13 55  0.00000000
PL64   3630.604033   4559.446450   3638.056961  28261.288635
VL64 -23043.587138 -33218.823818  64586.978460 999999.999999
*  2023  1 11 13 55 30.00000000
PL64   3559.266787   4457.453758   3829.765903  28261.747933
VL64 -24511.303677 -34768.946866  63207.216878 999999.999999
*  2023  1 11 13 56  0.00000000
PL64   3483.556753   4350.877711   4017.230460  28262.207142
VL64 -25958.478957 -36274.129139  61757.655727 999999.999999
*  2023  1 11 13 56 30.00000000
PL64   3403.538248   4239.855488   4200.243682  28262.666399
VL64 -27383.320713 -37732.809192  60239.941438 999999.999999
*  2023  1 11 13 57  0.00000000
PL64   3319.280928   4124.528855   4378.603676  28263.125750
VL64 -28784.063708 -39143.492482  58655.796954 999999.999999
*  2023  1 11 13 57 30.00000000
PL64   3230.859704   4005.043959   4552.113820  28263.585315
VL64 -30158.969552 -40504.751987  57007.010524 999999.999999
*  2023  1 11 13 58  0.00000000
PL64   3138.354666   3881.551134   4720.582948  28264.046001
VL64 -31506.321515 -41815.223148  55295.435296 999999.999999
*  2023  1 11 13 58 30.00000000
PL64   3041.851023   3754.204711   4883.825563  28264.506313
VL64 -32824.426513 -43073.605641  53522.993976 999999.999999
*  2023  1 11 13 59  0.00000000
PL64   2941.439019   3623.162823   5041.662033  28264.966372
VL64 -34111.620196 -44278.667328  51691.675598 999999.999999
*  2023  1 11 13 59 30.00000000
PL64   2837.213847   3488.587193   5193.918788  28265.426131
VL64 -35366.269614 -45429.245459  49803.530095 999999.999999
*  2023  1 11 14  0  0.00000000
PL64   2729.275547   3350.642930   5340.428491  28265.886205
VL64 -36586.774165 -46524.246201  47860.663914 999999.999999
*  2023  1 11 14  0 30.00000000
PL64   2617.728916   3209.498323   5481.030210  28266.346624
VL64 -37771.565346 -47562.642377  45865.238811 999999.999999
*  2023  1 11 14  1  0.00000000
PL64   2502.683405   3065.324642   5615.569583  28266.807731
VL64 -38919.108471 -48543.474047  43819.474137 999999.999999
*  2023  1 11 14  1 30.00000000
PL64   2384.253011   2918.295934   5743.898989  28267.268601
VL64 -40027.906982 -49465.852521  41725.645310 999999.999999
*  2023  1 11 14  2  0.00000000
PL64   2262.556164   2768.588799   5865.877715  28267.728816
VL64 -41096.505213 -50328.961964  39586.078103 999999.999999
*  2023  1 11 14  2 30.00000000
PL64   2137.715596   2616.382177   5981.372091  28268.188603
VL64 -42123.489148 -51132.058940  37403.145329 999999.999999
*  2023  1 11 14  3  0.00000000
PL64   2009.858216   2461.857130   6090.255637  28268.647937
VL64 -43107.488299 -51874.473005  35179.264469 999999.999999
*  2023  1 11 14  3 30.00000000
PL64   1879.114978   2305.196622   6192.409187  28269.107438
VL64 -44047.177482 -52555.606769  32916.894128 999999.999999
*  2023  1 11 14  4  0.00000000
PL64   1745.620741   2146.585297   6287.721008  28269.567130
VL64 -44941.277851 -53174.935615  30618.531333 999999.999999
*  2023  1 11 14  4 30.00000000
PL64   1609.514132   1986.209267   6376.086915 999999.999999
VL64 -45788.558408 -53732.007918  28286.709282 999999.999999
*  2023  1 11 14  5  0.00000000
PL64   1470.937394   1824.255887   6457.410370  28270.486252
VL64 -46587.837905 -54226.445452  25923.994463 999999.999999
*  2023  1 11 14  5 30.00000000
PL64   1330.036238   1660.913536   6531.602584  28270.945657
VL64 -47337.986114 -54657.943318  23532.983009 999999.999999
*  2023  1 11 14  6  0.00000000
PL64   1186.959689   1496.371402   6598.582594  28271.405040
VL64 -48037.924253 -55026.268896  21116.297769 999999.999999
*  2023  1 11 14  6 30.00000000
PL64   1041.859930   1330.819259   6658.277344  28271.864603
VL64 -48686.625805 -55331.261207  18676.586724 999999.999999
*  2023  1 11 14  7  0.00000000
PL64    894.892145   1164.447259   6710.621758  28272.324005
VL64 -49283.118284 -55572.831165  16216.520936 999999.999999
*  2023  1 11 14  7 30.00000000
PL64    746.214348    997.445714   6755.558805  28272.783429
VL64 -49826.484943 -55750.961241  13738.791286 999999.999999
*  2023  1 11 14  8  0.00000000
PL64    595.987223    830.004881   6793.039550  28273.242805
VL64 -50315.865547 -55865.703899  11246.106071 999999.999999
*  2023  1 11 14  8 30.00000000
PL64    444.373946    662.314758   6823.023210  28273.702242
VL64 -50750.457440 -55917.181731   8741.190252 999999.999999
*  2023  1 11 14  9  0.00000000
PL64    291.540013    494.564864   6845.477199  28274.161520
VL64 -51129.517321 -55905.589357   6226.782420 999999.999999
*  2023  1 11 14  9 30.00000000
PL64    137.653059    326.944028   6860.377161  28274.621085
VL64 -51452.362365 -55831.192919   3705.630431 999999.999999
*  2023  1 11 14 10  0.00000000
PL64    -17.117324    159.640176   6867.706992  28275.080324
VL64 -51718.371440 -55694.328899   1180.488376 999999.999999
*  2023  1 11 14 10 30.00000000
PL64   -172.599773     -7.159881   6867.458857  28275.539633
VL64 -51926.985825 -55495.403233  -1345.887274 999999.999999
*  2023  1 11 14 11  0.00000000
PL64   -328.621345   -173.270653   6859.633191  28275.998804
VL64 -52077.708877 -55234.889101  -3870.740287 999999.999999
*  2023  1 11 14 11 30.00000000
PL64   -485.007699   -338.508165   6844.238694  28276.458055
VL64 -52170.106916 -54913.325976  -6391.315126 999999.999999
*  2023  1 11 14 12  0.00000000
PL64   -641.583291   -502.690164   6821.292331  28276.917379
VL64 -52203.811365 -54531.320497  -8904.859173 999999.999999
*  2023  1 11 14 12 30.00000000
PL64   -798.171569   -665.636317   6790.819315  28277.376530
VL64 -52178.519895 -54089.546396 -11408.627537 999999.999999
*  2023  1 11 14 13  0.00000000
PL64   -954.595176   -827.168410   6752.853075  28277.835647
VL64 -52093.995946 -53588.742554 -13899.887154 999999.999999
*  2023  1 11 14 13 30.00000000
PL64  -1110.676139   -987.110543   6707.435220  28278.294718
VL64 -51950.068519 -53029.711200 -16375.918898 999999.999999
*  2023  1 11 14 14  0.00000000
PL64  -1266.236076  -1145.289313   6654.615493  28278.753874
VL64 -51746.632801 -52413.316750 -18834.019647 999999.999999
*  2023  1 11 14 14 30.00000000
PL64  -1421.096388  -1301.534004   6594.451719  28279.213160
VL64 -51483.651042 -51740.484523 -21271.504879 999999.999999
EOF
